[{"OBJECT_NAME":"STARLINK-6046","OBJECT_ID":"2023-078AB","EPOCH":"2026-03-09T22:30:25.453440","MEAN_MOTION":14.98325377,"ECCENTRICITY":0.00026049,"INCLINATION":70.001,"RA_OF_ASC_NODE":343.9855,"ARG_OF_PERICENTER":276.335,"MEAN_ANOMALY":83.7513,"EPHEMERIS_TYPE":0,"CLASSIFICATION_TYPE":"U","NORAD_CAT_ID":56792,"ELEMENT_SET_NO":999,"REV_AT_EPOCH":15271,"BSTAR":3.1778489e-5,"MEAN_MOTION_DOT":2.86e-6,"MEAN_MOTION_DDOT":0},{"OBJECT_NAME":"SL-14 DEB","OBJECT_ID":"1989-080E","EPOCH":"2026-03-09T05:35:00.617856","MEAN_MOTION":12.9728574,"ECCENTRICITY":0.09478457,"INCLINATION":82.5007,"RA_OF_ASC_NODE":133.4407,"ARG_OF_PERICENTER":247.0746,"MEAN_ANOMALY":170.9187,"EPHEMERIS_TYPE":0,"CLASSIFICATION_TYPE":"U","NORAD_CAT_ID":20129,"ELEMENT_SET_NO":999,"REV_AT_EPOCH":68960,"BSTAR":0.0012016676,"MEAN_MOTION_DOT":3.131e-5,"MEAN_MOTION_DDOT":0}]
